NORAD_CAT_ID,OBJECT_NAME,OBJECT_TYPE,EPOCH,MEAN_MOTION,ECCENTRICITY,INCLINATION,RA_OF_ASC_NODE,ARG_OF_PERICENTER,MEAN_ANOMALY,BSTAR,MEAN_MOTION_DOT,MEAN_MOTION_DDOT,TLE_LINE0,TLE_LINE1,TLE_LINE2,SEMIMAJOR_AXIS,PERIOD,APOGEE,PERIGEE,DECAYED
52377.0,STARLINK-3805,PAYLOAD,2023-06-03 03:25:02,15.08830508,0.0001322,53.2189,45.859,94.3978,265.7165,3.0407e-06,-2.39e-06,0.0,0 STARLINK-3805,1 52377U 22045AY  23154.14238891 -.00000239  00000-0  30407-5 0  9992,2 52377  53.2189  45.8590 0001322  94.3978 265.7165 15.08830508 63350,6917.909,95.438,540.689,538.86,0.0
52377.0,STARLINK-3805,PAYLOAD,2023-06-03 20:54:16,15.08843369,0.0001083,53.218,42.5905,108.7601,251.3509,2.5841e-05,1.24e-06,0.0,0 STARLINK-3805,1 52377U 22045AY  23154.87102142  .00000124  00000-0  25841-4 0  9998,2 52377  53.2180  42.5905 0001083 108.7601 251.3509 15.08843369 63466,6917.87,95.437,540.484,538.986,0.0
52377.0,STARLINK-3805,PAYLOAD,2023-06-04 01:40:25,15.08849355,0.0001151,53.2181,41.6975,95.5075,264.6048,9.0584e-05,1.154e-05,0.0,0 STARLINK-3805,1 52377U 22045AY  23155.06973758  .00001154  00000-0  90584-4 0  9999,2 52377  53.2181  41.6975 0001151  95.5075 264.6048 15.08849355 63497,6917.852,95.437,540.513,538.921,0.0
52377.0,STARLINK-3805,PAYLOAD,2023-06-04 11:12:44,15.08838796,0.0001424,53.2176,39.9139,96.7678,263.3476,0.00011828,1.595e-05,0.0,0 STARLINK-3805,1 52377U 22045AY  23155.46718407  .00001595  00000-0  11828-3 0  9993,2 52377  53.2176  39.9139 0001424  96.7678 263.3476 15.08838796 63553,6917.884,95.438,540.734,538.764,0.0
52377.0,STARLINK-3805,PAYLOAD,2023-06-04 22:20:26,15.08842648,0.0001382,53.2179,37.8327,124.9641,235.1481,3.9483e-05,3.41e-06,0.0,0 STARLINK-3805,1 52377U 22045AY  23155.93086430  .00000341  00000-0  39483-4 0  9995,2 52377  53.2179  37.8327 0001382 124.9641 235.1481 15.08842648 63621,6917.872,95.437,540.693,538.781,0.0
52377.0,STARLINK-3805,PAYLOAD,2023-06-04 23:55:49,15.08859012,0.000128,53.2179,37.5358,122.837,237.2745,-0.00012773,-2.321e-05,0.0,0 STARLINK-3805,1 52377U 22045AY  23155.99709853 -.00002321  00000-0 -12773-3 0  9996,2 52377  53.2179  37.5358 0001280 122.8370 237.2745 15.08859012 63635,6917.822,95.436,540.573,538.802,0.0
52377.0,STARLINK-3805,PAYLOAD,2023-06-05 11:03:31,15.08843045,9.45e-05,53.218,35.4542,136.4501,223.6566,7.5025e-05,9.07e-06,0.0,0 STARLINK-3805,1 52377U 22045AY  23156.46078121  .00000907  00000-0  75025-4 0  9992,2 52377  53.2180  35.4542 0000945 136.4501 223.6566 15.08843045 63700,6917.871,95.437,540.39,539.082,0.0
52377.0,STARLINK-3805,PAYLOAD,2023-06-05 17:25:04,15.08845613,0.0001243,53.2181,34.2649,85.1994,274.914,1.4434e-05,-5.8e-07,0.0,0 STARLINK-3805,1 52377U 22045AY  23156.72574487 -.00000058  00000-0  14434-4 0  9992,2 52377  53.2181  34.2649 0001243  85.1994 274.9140 15.08845613 63748,6917.863,95.437,540.588,538.868,0.0
52377.0,STARLINK-3805,PAYLOAD,2023-06-05 20:35:50,15.0884824,0.0001208,53.2183,33.6705,80.237,279.8759,4.4791e-05,4.25e-06,0.0,0 STARLINK-3805,1 52377U 22045AY  23156.85822208  .00000425  00000-0  44791-4 0  9999,2 52377  53.2183  33.6705 0001208  80.2370 279.8759 15.08848240 63762,6917.855,95.437,540.556,538.885,0.0
52377.0,STARLINK-3805,PAYLOAD,2023-06-05 22:11:13,15.088507,0.0001188,53.2182,33.3729,82.1444,277.9683,5.2895e-05,5.54e-06,0.0,0 STARLINK-3805,1 52377U 22045AY  23156.92445996  .00000554  00000-0  52895-4 0  9999,2 52377  53.2182  33.3729 0001188  82.1444 277.9683 15.08850700 63774,6917.848,95.437,540.535,538.891,0.0
52377.0,STARLINK-3805,PAYLOAD,2023-06-06 10:54:18,15.0884025,0.000103,53.2186,30.9937,94.0323,266.0787,5.922e-05,6.55e-06,0.0,0 STARLINK-3805,1 52377U 22045AY  23157.45438448  .00000655  00000-0  59220-4 0  9993,2 52377  53.2186  30.9937 0001030  94.0323 266.0787 15.08840250 63858,6917.88,95.438,540.457,539.032,0.0
52377.0,STARLINK-3805,PAYLOAD,2023-06-06 17:15:51,15.08836666,9.85e-05,53.219,29.8055,81.7286,278.3817,2.9911e-05,1.88e-06,0.0,0 STARLINK-3805,1 52377U 22045AY  23157.71934801  .00000188  00000-0  29911-4 0  9991,2 52377  53.2190  29.8055 0000985  81.7286 278.3817 15.08836666 63890,6917.891,95.438,540.437,539.074,0.0
52377.0,STARLINK-3805,PAYLOAD,2023-06-07 10:45:06,15.08837829,0.0001089,53.2188,26.5338,96.4539,263.6577,3.5429e-05,2.76e-06,0.0,0 STARLINK-3805,1 52377U 22045AY  23158.44798730  .00000276  00000-0  35429-4 0  9990,2 52377  53.2188  26.5338 0001089  96.4539 263.6577 15.08837829 64001,6917.887,95.438,540.505,538.999,0.0
52377.0,STARLINK-3805,PAYLOAD,2023-06-07 18:42:02,15.08835584,0.0001176,53.2183,25.047,92.5488,267.5638,1.3045e-05,-8e-07,0.0,0 STARLINK-3805,1 52377U 22045AY  23158.77919040 -.00000080  00000-0  13045-4 0  9999,2 52377  53.2183  25.0470 0001176  92.5488 267.5638 15.08835584 64056,6917.894,95.438,540.572,538.945,0.0
52377.0,STARLINK-3805,PAYLOAD,2023-06-07 21:52:48,15.08838585,0.0001134,53.2185,24.4535,84.5817,275.5304,3.8229e-05,3.21e-06,0.0,0 STARLINK-3805,1 52377U 22045AY  23158.91166825  .00000321  00000-0  38229-4 0  9998,2 52377  53.2185  24.4535 0001134  84.5817 275.5304 15.08838585 64079,6917.885,95.438,540.534,538.965,0.0
52377.0,STARLINK-3805,PAYLOAD,2023-06-08 01:03:34,15.08844089,0.0001203,53.2181,23.8562,95.9992,264.1137,2.961e-05,1.83e-06,0.0,0 STARLINK-3805,1 52377U 22045AY  23159.04414439  .00000183  00000-0  29610-4 0  9990,2 52377  53.2181  23.8562 0001203  95.9992 264.1137 15.08844089 64091,6917.868,95.437,540.565,538.901,0.0
52377.0,STARLINK-3805,PAYLOAD,2023-06-09 07:15:53,15.08840896,0.000125,53.2178,18.208,93.2123,266.9012,4.51e-05,4.3e-06,0.0,0 STARLINK-3805,1 52377U 22045AY  23160.30270745  .00000430  00000-0  45100-4 0  9998,2 52377  53.2178  18.2080 0001250  93.2123 266.9012 15.08840896 64284,6917.878,95.437,540.607,538.878,0.0
52377.0,STARLINK-3805,PAYLOAD,2023-06-09 13:37:26,15.08834074,0.00012,53.2178,17.0188,93.3886,266.7244,8.6465e-05,1.088e-05,0.0,0 STARLINK-3805,1 52377U 22045AY  23160.56767176  .00001088  00000-0  86465-4 0  9994,2 52377  53.2178  17.0188 0001200  93.3886 266.7244 15.08834074 64323,6917.899,95.438,540.594,538.933,0.0
52377.0,STARLINK-3805,PAYLOAD,2023-06-09 16:48:13,15.08828724,0.0001175,53.218,16.4232,88.1036,272.0091,1.8061e-05,0.0,0.0,0 STARLINK-3805,1 52377U 22045AY  23160.70015781 -.00000000  00000-0  18061-4 0  9999,2 52377  53.2180  16.4232 0001175  88.1036 272.0091 15.08828724 64346,6917.915,95.438,540.593,538.967,0.0
52377.0,STARLINK-3805,PAYLOAD,2023-06-09 21:34:22,15.08833107,0.0001296,53.2181,15.5315,90.0254,270.0887,4.5352e-05,4.34e-06,0.0,0 STARLINK-3805,1 52377U 22045AY  23160.89887346  .00000434  00000-0  45352-4 0  9996,2 52377  53.2181  15.5315 0001296  90.0254 270.0887 15.08833107 64372,6917.901,95.438,540.663,538.87,0.0
52377.0,STARLINK-3805,PAYLOAD,2023-06-10 00:45:08,15.08838439,0.0001228,53.2174,14.9367,91.2469,268.8664,3.666e-05,2.96e-06,0.0,0 STARLINK-3805,1 52377U 22045AY  23161.03135141  .00000296  00000-0  36660-4 0  9990,2 52377  53.2174  14.9367 0001228  91.2469 268.8664 15.08838439 64393,6917.885,95.438,540.6,538.901,0.0
52377.0,STARLINK-3805,PAYLOAD,2023-06-10 08:42:04,15.08840442,0.0001002,53.2181,13.4506,91.9951,268.1156,-1.7101e-05,-5.6e-06,0.0,0 STARLINK-3805,1 52377U 22045AY  23161.36255128 -.00000560  00000-0 -17101-4 0  9999,2 52377  53.2181  13.4506 0001002  91.9951 268.1156 15.08840442 64445,6917.879,95.438,540.437,539.051,0.0
52377.0,STARLINK-3805,PAYLOAD,2023-06-11 08:32:51,15.08841504,0.0001096,53.2172,8.988,83.4693,276.6424,6.0215e-05,6.71e-06,0.0,0 STARLINK-3805,1 52377U 22045AY  23162.35615055  .00000671  00000-0  60215-4 0  9993,2 52377  53.2172   8.9880 0001096  83.4693 276.6424 15.08841504 64599,6917.876,95.437,540.499,538.983,0.0
52377.0,STARLINK-3805,PAYLOAD,2023-06-11 16:29:47,15.08834531,9.49e-05,53.2178,7.5021,85.5499,274.5602,9.7317e-05,1.261e-05,0.0,0 STARLINK-3805,1 52377U 22045AY  23162.68735444  .00001261  00000-0  97317-4 0  9993,2 52377  53.2178   7.5021 0000949  85.5499 274.5602 15.08834531 64643,6917.897,95.438,540.419,539.106,0.0
52377.0,STARLINK-3805,PAYLOAD,2023-06-12 06:48:15,15.08840497,0.000108,53.2168,4.8255,84.6689,275.4426,6.0756e-05,6.79e-06,0.0,0 STARLINK-3805,1 52377U 22045AY  23163.28351190  .00000679  00000-0  60756-4 0  9991,2 52377  53.2168   4.8255 0001080  84.6689 275.4426 15.08840497 64731,6917.879,95.438,540.491,538.997,0.0
52377.0,STARLINK-3805,PAYLOAD,2023-06-12 19:31:20,15.08839516,9.2e-05,53.2178,2.4474,85.147,274.9627,5.9748e-05,6.63e-06,0.0,0 STARLINK-3805,1 52377U 22045AY  23163.81343274  .00000663  00000-0  59748-4 0  9996,2 52377  53.2178   2.4474 0000920  85.1470 274.9627 15.08839516 64811,6917.882,95.438,540.383,539.11,0.0
52377.0,STARLINK-3805,PAYLOAD,2023-06-12 22:42:06,15.08846718,9.1e-05,53.2183,1.8501,96.1419,263.9677,5.4709e-05,5.83e-06,0.0,0 STARLINK-3805,1 52377U 22045AY  23163.94590789  .00000583  00000-0  54709-4 0  9998,2 52377  53.2183   1.8501 0000910  96.1419 263.9677 15.08846718 64832,6917.86,95.437,540.354,539.095,0.0
52377.0,STARLINK-3805,PAYLOAD,2023-06-13 13:00:35,15.08839254,0.0001026,53.2177,359.1753,85.9209,274.1901,5.4535e-05,5.8e-06,0.0,0 STARLINK-3805,1 52377U 22045AY  23164.54207206  .00000580  00000-0  54535-4 0  9998,2 52377  53.2177 359.1753 0001026  85.9209 274.1901 15.08839254 64926,6917.883,95.438,540.457,539.038,0.0
52377.0,STARLINK-3805,PAYLOAD,2023-06-13 19:22:07,15.08846154,9.61e-05,53.2178,357.9864,84.4735,275.6366,0.00010842,1.438e-05,0.0,0 STARLINK-3805,1 52377U 22045AY  23164.80702586  .00001438  00000-0  10842-3 0  9993,2 52377  53.2178 357.9864 0000961  84.4735 275.6366 15.08846154 64963,6917.862,95.437,540.391,539.062,0.0
52377.0,STARLINK-3805,PAYLOAD,2023-06-14 12:51:22,15.08835432,9.5e-05,53.2181,354.7141,93.9785,266.1316,2.1971e-05,6.2e-07,0.0,0 STARLINK-3805,1 52377U 22045AY  23165.53567485  .00000062  00000-0  21971-4 0  9999,2 52377  53.2181 354.7141 0000950  93.9785 266.1316 15.08835432 65078,6917.894,95.438,540.417,539.102,0.0
